OBJECT_NAME,OBJECT_ID,EPOCH,MEAN_MOTION,ECCENTRICITY,INCLINATION,RA_OF_ASC_NODE,ARG_OF_PERICENTER,MEAN_ANOMALY,EPHEMERIS_TYPE,CLASSIFICATION_TYPE,NORAD_CAT_ID,ELEMENT_SET_NO,REV_AT_EPOCH,BSTAR,MEAN_MOTION_DOT,MEAN_MOTION_DDOT
SES-2,2011-049A,2026-07-23T07:44:27.589056,1.00272736,.00030306,0.1479,90.5982,26.4917,213.0744,0,U,37809,999,5432,0,-.191E-5,0
ARABSAT-5C,2011-049B,2026-07-23T06:14:12.691968,1.00275570,.00037797,0.0478,4.2230,138.0145,272.3475,0,U,37810,999,5439,0,.128E-5,0
EUTELSAT 7 WEST A,2011-051A,2026-07-23T06:06:20.946240,1.00272367,.00049924,0.0610,6.9682,123.6096,254.6669,0,U,37816,999,5423,0,-.56E-6,0
QUETZSAT 1,2011-054A,2026-07-23T07:50:04.142976,1.00271082,.00029994,0.0327,292.7938,193.8826,214.8943,0,U,37826,999,5023,0,-.237E-5,0
INTELSAT 18 (IS-18),2011-056A,2026-07-22T20:43:54.391872,1.00272080,.00019995,0.0306,264.0516,225.2474,302.2680,0,U,37834,999,5416,0,.57E-6,0
EUTELSAT 16A,2011-057A,2026-07-23T06:12:57.811680,1.00271516,.00054925,0.0505,40.1063,83.4560,286.6597,0,U,37836,999,769,0,.108E-5,0
VIASAT-1,2011-059A,2026-07-23T06:46:04.751616,1.00270284,.00026264,0.0219,54.8077,62.7156,169.9136,0,U,37843,999,4768,0,0,0
ASIASAT 7,2011-069A,2026-07-22T22:05:17.114208,1.00275086,.0001891,0.0550,258.5856,186.2952,292.5752,0,U,37933,999,4521,0,-.33E-5,0
BEIDOU-2 IGSO-5,2011-073A,2026-07-02T17:30:18.330912,1.00270596,.01145273,47.6496,271.3544,222.0502,141.5350,0,U,37948,999,5329,0,-.128E-5,0
LUCH-5A,2011-074B,2026-07-22T10:44:56.095008,1.00274767,.00028884,8.8408,73.2870,61.8063,133.3744,0,U,37951,999,5340,0,-.52E-6,0
NIGCOMSAT 1R,2011-077A,2026-07-23T06:20:34.581696,1.00274673,.00025321,0.0541,236.2673,117.9710,84.4206,0,U,38014,999,5331,0,.149E-5,0
WGS F4 (USA 233),2012-003A,2026-07-23T03:08:20.873760,1.00271493,.00003742,0.0188,54.0988,260.7342,121.5293,0,U,38070,999,4450,0,-.21E-5,0
SES-4,2012-007A,2026-07-23T06:02:13.839648,1.00273205,.00025167,0.0235,33.1691,93.3312,243.0479,0,U,38087,999,5258,0,-.163E-5,0
BEIDOU-2 G5,2012-008A,2026-07-23T02:59:59.174880,1.00273506,.00070224,3.6613,69.4690,271.3889,63.6669,0,U,38091,999,5272,0,.58E-6,0
MUOS-1,2012-009A,2026-07-23T05:10:09.441984,1.00271274,.00562714,5.5474,47.1004,3.7677,227.6629,0,U,38093,999,5280,0,-.127E-5,0
INTELSAT 22 (IS-22),2012-011A,2026-07-23T03:03:43.815744,1.00270512,.00022694,0.0336,79.7499,74.2805,264.8668,0,U,38098,999,754,0,0,0
APSTAR-7,2012-013A,2026-07-22T15:06:25.706016,1.00271842,.00033755,0.0392,95.5918,33.4704,114.4149,0,U,38107,999,5216,0,-.98E-6,0
YAHSAT 1B,2012-016A,2026-07-23T06:22:04.437696,1.00269623,.00028761,0.0925,88.8784,25.5844,329.6494,0,U,38245,999,4596,0,.131E-5,0
AEHF-2 (USA 235),2012-019A,2026-07-22T23:37:38.616672,1.00271673,.00021259,6.7305,57.2119,70.1338,151.3029,0,U,38254,999,734,0,-.136E-5,0
JCSAT-13,2012-023A,2026-07-23T06:43:47.355744,1.00271562,.00025965,0.0365,261.3905,227.1124,37.4638,0,U,38331,999,5190,0,-.352E-5,0
VINASAT-2,2012-023B,2026-07-23T06:46:02.140608,1.00271016,.00024756,0.0290,310.4323,167.9003,56.0323,0,U,38332,999,4702,0,-.324E-5,0
NIMIQ 6,2012-026A,2026-07-23T07:47:19.951872,1.00271151,.00030296,0.0545,262.2824,220.9839,203.5152,0,U,38342,999,5077,0,-.169E-5,0
ZHONGXING-2A,2012-028A,2026-07-23T03:11:13.099200,1.00273434,.00016301,1.5454,83.4272,28.2007,335.2863,0,U,38352,999,5166,0,-.29E-5,0
INTELSAT 19 (IS-19),2012-030A,2026-07-23T05:13:07.424256,1.00273040,.00031004,0.0102,68.5878,51.4725,65.1705,0,U,38356,999,5081,0,-.52E-6,0
ECHOSTAR 17,2012-035A,2026-07-23T04:31:38.577216,1.00272312,.00021014,0.0184,59.5338,59.7599,142.4347,0,U,38551,999,5142,0,-.71E-6,0
METEOSAT-10 (MSG-3),2012-035B,2026-07-23T06:08:28.241952,1.00273330,.00014982,4.7546,60.8392,20.5243,311.7984,0,U,38552,999,5121,0,-.6E-7,0
SES-5,2012-036A,2026-07-23T06:09:50.611392,1.00270024,.00022093,0.0432,323.6831,152.8190,281.9184,0,U,38652,999,4481,0,.38E-6,0
INTELSAT 20 (IS-20),2012-043A,2026-07-23T03:02:43.912032,1.00273070,.00013259,0.0134,77.3608,104.6200,233.0684,0,U,38740,999,5110,0,-.2E-6,0
HYLAS 2,2012-043B,2026-07-21T06:26:14.779968,1.00330437,.00015995,2.5130,80.6497,221.2518,21.2291,0,U,38741,999,5111,0,-.263E-5,0
INTELSAT 21 (IS-21),2012-045A,2026-07-23T05:51:59.820768,1.00270753,.00019142,0.0341,261.3991,230.7511,198.8253,0,U,38749,999,5088,0,-.28E-5,0
ASTRA 2F,2012-051A,2026-07-23T06:16:27.476832,1.00274151,.00033279,0.0693,251.5504,289.1268,242.5947,0,U,38778,999,4149,0,.155E-5,0
GSAT-10,2012-051B,2026-07-23T03:06:51.016896,1.00272426,.00076584,0.0717,262.7463,193.6766,334.1689,0,U,38779,999,5045,0,-.16E-5,0
