SES-2                   
1 37809U 11049A   26204.32254154 -.00000191  00000+0  00000+0 0  9992
2 37809   0.1479  90.5982 0003030  26.4917 213.0744  1.00272736 54321
ARABSAT-5C              
1 37810U 11049B   26204.25986912  .00000128  00000+0  00000+0 0  9999
2 37810   0.0478   4.2230 0003779 138.0145 272.3475  1.00275570 54397
EUTELSAT 7 WEST A       
1 37816U 11051A   26204.25440910 -.00000056  00000+0  00000+0 0  9992
2 37816   0.0610   6.9682 0004992 123.6096 254.6669  1.00272367 54236
QUETZSAT 1              
1 37826U 11054A   26204.32643684 -.00000237  00000+0  00000+0 0  9998
2 37826   0.0327 292.7938 0002999 193.8826 214.8943  1.00271082 50238
INTELSAT 18 (IS-18)     
1 37834U 11056A   26203.86382398  .00000057  00000+0  00000+0 0  9998
2 37834   0.0306 264.0516 0001999 225.2474 302.2680  1.00272080 54161
EUTELSAT 16A            
1 37836U 11057A   26204.25900245  .00000108  00000+0  00000+0 0  9999
2 37836   0.0505  40.1063 0005492  83.4560 286.6597  1.00271516  7697
VIASAT-1                
1 37843U 11059A   26204.28199944  .00000000  00000+0  00000+0 0  9999
2 37843   0.0219  54.8077 0002626  62.7156 169.9136  1.00270284 47687
ASIASAT 7               
1 37933U 11069A   26203.92033697 -.00000330  00000+0  00000+0 0  9999
2 37933   0.0550 258.5856 0001891 186.2952 292.5752  1.00275086 45211
BEIDOU-2 IGSO-5         
1 37948U 11073A   26183.72937883 -.00000128  00000+0  00000+0 0  9990
2 37948  47.6496 271.3544 0114527 222.0502 141.5350  1.00270596 53296
LUCH-5A                 
1 37951U 11074B   26203.44787147 -.00000052  00000+0  00000+0 0  9999
2 37951   8.8408  73.2870 0002888  61.8063 133.3744  1.00274767 53403
NIGCOMSAT 1R            
1 38014U 11077A   26204.26428914  .00000149  00000+0  00000+0 0  9994
2 38014   0.0541 236.2673 0002532 117.9710  84.4206  1.00274673 53311
WGS F4 (USA 233)        
1 38070U 12003A   26204.13079715 -.00000210  00000+0  00000+0 0  9993
2 38070   0.0188  54.0988 0000374 260.7342 121.5293  1.00271493 44502
SES-4                   
1 38087U 12007A   26204.25154907 -.00000163  00000+0  00000+0 0  9992
2 38087   0.0235  33.1691 0002516  93.3312 243.0479  1.00273205 52585
BEIDOU-2 G5             
1 38091U 12008A   26204.12499045  .00000058  00000+0  00000+0 0  9991
2 38091   3.6613  69.4690 0007022 271.3889  63.6669  1.00273506 52721
MUOS-1                  
1 38093U 12009A   26204.21538706 -.00000127  00000+0  00000+0 0  9990
2 38093   5.5474  47.1004 0056271   3.7677 227.6629  1.00271274 52800
INTELSAT 22 (IS-22)     
1 38098U 12011A   26204.12759046  .00000000  00000+0  00000+0 0  9999
2 38098   0.0336  79.7499 0002269  74.2805 264.8668  1.00270512  7546
APSTAR-7                
1 38107U 12013A   26203.62946419 -.00000098  00000+0  00000+0 0  9996
2 38107   0.0392  95.5918 0003375  33.4704 114.4149  1.00271842 52164
YAHSAT 1B               
1 38245U 12016A   26204.26532914  .00000131  00000+0  00000+0 0  9991
2 38245   0.0925  88.8784 0002876  25.5844 329.6494  1.00269623 45964
AEHF-2 (USA 235)        
1 38254U 12019A   26203.98447473 -.00000136  00000+0  00000+0 0  9993
2 38254   6.7305  57.2119 0002125  70.1338 151.3029  1.00271673  7344
JCSAT-13                
1 38331U 12023A   26204.28040921 -.00000352  00000+0  00000+0 0  9995
2 38331   0.0365 261.3905 0002596 227.1124  37.4638  1.00271562 51901
VINASAT-2               
1 38332U 12023B   26204.28196922 -.00000324  00000+0  00000+0 0  9998
2 38332   0.0290 310.4323 0002475 167.9003  56.0323  1.00271016 47022
NIMIQ 6                 
1 38342U 12026A   26204.32453648 -.00000169  00000+0  00000+0 0  9995
2 38342   0.0545 262.2824 0003029 220.9839 203.5152  1.00271151 50774
ZHONGXING-2A            
1 38352U 12028A   26204.13279050 -.00000290  00000+0  00000+0 0  9995
2 38352   1.5454  83.4272 0001630  28.2007 335.2863  1.00273434 51669
INTELSAT 19 (IS-19)     
1 38356U 12030A   26204.21744704 -.00000052  00000+0  00000+0 0  9990
2 38356   0.0102  68.5878 0003100  51.4725  65.1705  1.00273040 50815
ECHOSTAR 17             
1 38551U 12035A   26204.18864094 -.00000071  00000+0  00000+0 0  9994
2 38551   0.0184  59.5338 0002101  59.7599 142.4347  1.00272312 51423
METEOSAT-10 (MSG-3)     
1 38552U 12035B   26204.25588243 -.00000006  00000+0  00000+0 0  9990
2 38552   4.7546  60.8392 0001498  20.5243 311.7984  1.00273330 51218
SES-5                   
1 38652U 12036A   26204.25683578  .00000038  00000+0  00000+0 0  9993
2 38652   0.0432 323.6831 0002209 152.8190 281.9184  1.00270024 44816
INTELSAT 20 (IS-20)     
1 38740U 12043A   26204.12689713 -.00000020  00000+0  00000+0 0  9994
2 38740   0.0134  77.3608 0001325 104.6200 233.0684  1.00273070 51100
HYLAS 2                 
1 38741U 12043B   26202.26822662 -.00000263  00000+0  00000+0 0  9999
2 38741   2.5130  80.6497 0001599 221.2518  21.2291  1.00330437 51111
INTELSAT 21 (IS-21)     
1 38749U 12045A   26204.24444237 -.00000280  00000+0  00000+0 0  9996
2 38749   0.0341 261.3991 0001914 230.7511 198.8253  1.00270753 50888
ASTRA 2F                
1 38778U 12051A   26204.26142913  .00000155  00000+0  00000+0 0  9993
2 38778   0.0693 251.5504 0003327 289.1268 242.5947  1.00274151 41498
GSAT-10                 
1 38779U 12051B   26204.12975714 -.00000160  00000+0  00000+0 0  9999
2 38779   0.0717 262.7463 0007658 193.6766 334.1689  1.00272426 50457
